OBJECT_NAME,OBJECT_ID,EPOCH,MEAN_MOTION,ECCENTRICITY,INCLINATION,RA_OF_ASC_NODE,ARG_OF_PERICENTER,MEAN_ANOMALY,EPHEMERIS_TYPE,CLASSIFICATION_TYPE,NORAD_CAT_ID,ELEMENT_SET_NO,REV_AT_EPOCH,BSTAR,MEAN_MOTION_DOT,MEAN_MOTION_DDOT
NIMIQ 4,2008-044A,2026-06-18T14:14:37.453056,1.00267388,.0002086,0.0370,51.4400,35.8357,311.2464,0,U,33373,999,6499,0,0,0
GALAXY 19 (G-19),2008-045A,2026-06-18T15:53:02.200992,1.00271177,.0002518,0.0324,263.5653,188.5280,316.0666,0,U,33376,999,6491,0,-.145E-5,0
ASTRA 1M,2008-057A,2026-06-18T14:43:34.676256,1.00272403,.000478,0.3011,82.4774,25.2693,39.3592,0,U,33436,999,4575,0,.114E-5,0
EUTELSAT HOTBIRD 13C,2008-065A,2026-06-18T12:41:02.392224,1.00270426,.0003363,2.9546,79.1758,7.6248,319.9269,0,U,33459,999,4735,0,-.29E-5,0
EXPRESS-AM44,2009-007A,2026-06-18T14:34:50.514240,1.00270952,.0003803,3.4677,78.3734,1.8119,34.3560,0,U,33595,999,5230,0,-.97E-6,0
NSS-9,2009-008A,2026-06-18T15:30:11.890080,1.00270689,.0002009,1.2664,82.6421,346.1673,253.6806,0,U,33749,999,6353,0,.65E-6,0
TELSTAR 11N,2009-009A,2026-06-18T09:19:15.269088,1.00270178,.0002223,0.0235,64.8262,24.8994,279.1484,0,U,34111,999,4625,0,-.257E-5,0
WGS F2 (USA 204),2009-017A,2026-06-18T14:54:22.575168,1.00273050,.0000297,0.0177,9.8632,273.2198,264.8727,0,U,34713,999,4563,0,.61E-6,0
SES-7 (PROTOSTAR 2),2009-027A,2026-06-18T14:51:17.265312,1.00259987,.0000435,0.0418,68.6584,191.5237,337.7400,0,U,34941,999,6264,0,-.35E-5,0
MEASAT-3A,2009-032A,2026-06-18T14:55:38.653824,1.00271777,.0002911,0.0217,359.3171,81.0030,210.4589,0,U,35362,999,804,0,-.117E-5,0
GOES 14,2009-033A,2026-06-18T17:09:00.290016,1.00110439,.0001831,1.6949,83.0245,12.4134,209.7079,0,U,35491,999,660,0,-.304E-5,0
FM-5,2009-034A,2026-06-18T12:30:48.373344,1.00277833,.0000622,0.0186,296.2063,11.6391,60.4535,0,U,35493,999,4665,0,-.207E-5,0
TERRESTAR-1,2009-035A,2026-06-18T15:48:40.121280,1.00272073,.0002626,5.1763,48.8007,31.4792,312.7675,0,U,35496,999,6214,0,-.65E-6,0
ASIASAT 5,2009-042A,2026-06-18T15:06:36.119808,1.00266539,.0001569,0.0284,47.1681,39.0648,147.8466,0,U,35696,999,6172,0,0,0
JCSAT-12 (JCSAT-RA),2009-044A,2026-06-18T13:14:37.438080,1.00270600,.0000258,0.0086,14.9883,289.1618,293.3350,0,U,35755,999,6162,0,-.334E-5,0
OPTUS D3,2009-044B,2026-06-18T15:22:35.120064,1.00270123,.0002743,0.8729,268.9316,180.3950,204.3323,0,U,35756,999,6158,0,-.152E-5,0
NIMIQ 5,2009-050A,2026-06-18T15:19:22.485216,1.00269842,.0002739,0.0072,8.3041,77.0710,338.6364,0,U,35873,999,6135,0,-.263E-5,0
AMAZONAS 2,2009-054A,2026-06-18T14:17:29.675904,1.00272878,.000313,1.8202,83.0304,5.6337,320.5408,0,U,35942,999,6119,0,-.266E-5,0
COMSATBW-1,2009-054B,2026-06-18T11:30:37.389888,1.00276711,.0002674,0.0550,162.5729,293.6151,46.2520,0,U,35943,999,6132,0,.17E-6,0
NSS-12,2009-058A,2026-06-18T14:54:15.086016,1.00270448,.0004884,0.0301,309.4902,107.8532,130.0665,0,U,36032,999,6093,0,.66E-6,0
THOR 6,2009-058B,2026-06-18T14:37:42.737952,1.00271328,.00016,0.0212,94.2556,348.5226,42.6516,0,U,36033,999,6102,0,-.16E-6,0
INTELSAT 14 (IS-14),2009-064A,2026-06-18T10:59:47.845824,1.00272000,.0002296,0.0119,310.1717,135.4044,301.0751,0,U,36097,999,6061,0,-.28E-5,0
EUTELSAT 36B,2009-065A,2026-06-18T13:09:44.637984,1.00268624,.0005448,0.4953,81.1341,4.1786,69.4173,0,U,36101,999,6072,0,.106E-5,0
INTELSAT 15 (IS-15),2009-067A,2026-06-18T15:02:14.040096,1.00272210,.0002115,0.0151,336.7829,110.5059,130.2753,0,U,36106,999,4124,0,-.191E-5,0
WGS F3 (USA 211),2009-068A,2026-06-18T12:18:19.567872,1.00272034,.0000065,0.3252,85.7732,279.9238,315.6369,0,U,36108,999,4660,0,.58E-6,0
DIRECTV 12,2009-075A,2026-06-18T15:51:24.856704,1.00272181,.0000385,0.0434,170.9001,299.0990,292.0273,0,U,36131,999,4656,0,-.11E-5,0
BEIDOU-2 G1,2010-001A,2026-06-18T16:19:59.479392,1.00269716,.0002219,4.2972,60.4043,296.1030,295.8676,0,U,36287,999,6018,0,-.288E-5,0
SDO,2010-005A,2026-06-17T09:50:26.387232,1.00269958,.00017341,34.6527,86.3378,44.0102,180.8312,0,U,36395,999,6006,0,-.96E-6,0
INTELSAT 16 (IS-16),2010-006A,2026-06-18T12:33:33.108768,1.00272434,.0001928,0.0106,326.8305,134.2807,277.8288,0,U,36397,999,5966,0,-.251E-5,0
EWS-G2 (GOES 15),2010-008A,2026-06-18T14:55:59.920320,1.00266285,.0004826,1.2824,82.8216,42.0801,69.6456,0,U,36411,999,5965,0,.13E-6,0
ECHOSTAR 14,2010-010A,2026-06-18T15:46:47.800416,1.00269896,.0002364,0.0489,84.8839,15.9754,283.8424,0,U,36499,999,4656,0,-.6E-7,0
SES-1,2010-016A,2026-06-18T15:51:54.808992,1.00270925,.0002623,0.0316,297.5153,146.0025,320.3535,0,U,36516,999,5904,0,-.121E-5,0
